{
  "norad_id": 39446,
  "name": "UWE-3",
  "history": [
    {
      "epoch": "2026-03-28T20:32:03.082272Z",
      "apogee_km": 611.7975965269643,
      "perigee_km": 544.4426629920699,
      "latitude_deg": 2.1988349716001855e-05,
      "longitude_deg": -90.81489092637361,
      "height_km": 604.2752966492584,
      "semi_major_axis_km": 6956.257129759517,
      "eccentricity": 0.00484132,
      "inclination_deg": 97.8615,
      "raan_deg": 43.468,
      "arg_perigee_deg": 226.6001,
      "mean_anomaly_deg": 133.1185,
      "mean_motion_rev_day": 14.96371134
    }
  ]
}